UFO 10 (USA 146)        
1 25967U 99063A   26063.15254101 -.00000196  00000+0  00000+0 0  9997
2 25967   9.8479  27.7922 0005299 294.7189 231.4764  1.00273818 96295
ASIASTAR                
1 26107U 00016A   26062.96379664 -.00000343  00000+0  00000+0 0  9998
2 26107   8.8860  59.2678 0004552 291.5573 262.8739  1.00271712 94868
USA 149 (DSP 20)        
1 26356U 00024A   26063.05287387  .00000087  00000+0  00000+0 0  9998
2 26356  13.0915  12.5906 0002233   3.9949 358.8834  1.00275993 31863
TDRS 8                  
1 26388U 00034A   26062.88854576 -.00000203  00000+0  00000+0 0  9995
2 26388  12.5180  32.1998 0006151 307.6527 226.4214  1.00276605 94125
NSS-11                  
1 26554U 00059A   26063.12038751  .00000013  00000+0  00000+0 0  9992
2 26554   1.8553  82.6752 0003168 265.4583  33.0676  1.00271899 40238
USA 153                 
1 26575U 00065A   26062.82694310 -.00000334  00000+0  00000+0 0  9994
2 26575  11.4443  36.2767 0002549 344.4445 212.9659  1.00269888 31878
AMC-6                   
1 26580U 00067A   26063.09419830  .00000076  00000+0  00000+0 0  9996
2 26580   0.0504 306.7725 0003116  39.4699  74.4412  1.00271968 92831
USA 157 (MILSTAR-2 2)   
1 26715U 01009A   26063.05590722  .00000101  00000+0  00000+0 0  9998
2 26715  11.4274  20.4046 0038095 183.4040 188.1870  1.00279564 31891
INTELSAT 10 (IS-10)     
1 26766U 01019A   26062.82928310 -.00000297  00000+0  00000+0 0  9994
2 26766   8.8245  60.3264 0005997 265.5847 279.9653  0.99042030 44538
USA 159 (DSP 21)        
1 26880U 01033A   26061.45970787 -.00000308  00000+0  00000+0 0  9993
2 26880  12.6874  17.1829 0002281 242.9429  16.5978  1.00279769 31895
INTELSAT 902 (IS-902)   
1 26900U 01039A   26062.03863722 -.00000296  00000+0  00000+0 0  9993
2 26900   5.8488  73.0785 0004598 274.7996 136.7372  1.00270738 89635
USA 164 (MILSTAR-2 3)   
1 27168U 02001A   26063.08936071  .00000089  00000+0  00000+0 0  9993
2 27168  11.0549  22.5334 0099455   4.6986 185.7156  1.00269410 31909
INTELSAT 904 (IS-904)   
1 27380U 02007A   26062.86550995 -.00000236  00000+0  00000+0 0  9992
2 27380   6.6574  70.4474 0006109 305.4536  65.8068  1.00273362 50718
DIRECTV 5 (TEMPO 1)     
1 27426U 02023A   26063.13520759 -.00000067  00000+0  00000+0 0  9999
2 27426   4.6098  76.6238 0003607 274.1465 109.6848  1.00272238 87070
INTELSAT 905 (IS-905)   
1 27438U 02027A   26063.12983422  .00000084  00000+0  00000+0 0  9993
2 27438   6.4900  71.0640 0003163 276.6750  83.6850  1.00273422 50308
GALAXY 3C (G-3C)        
1 27445U 02030A   26063.15225881 -.00000163  00000+0  00000+0 0  9995
2 27445   3.4639  79.4641 0001010  27.1185  15.2928  1.00271638 45448
INTELSAT 906 (IS-906)   
1 27513U 02041A   26062.54820634  .00000001  00000+0  00000+0 0  9992
2 27513   5.5340  74.2228 0003244 256.5254  92.0662  1.00272758 85969
